{"type":"FeatureCollection","features":[{"type":"Feature","geometry":{"type":"Polygon","coordinates":[[[0.551929,9.202836],[0.5549738186995485,9.187528662705397],[0.5636447287525381,9.174551728752538],[0.5766216627053964,9.165880818699549],[0.591929,9.162836],[0.6072363372946037,9.165880818699549],[0.7995603372946036,9.223512818699549],[0.8125372712474619,9.232183728752538],[0.8212081813004515,9.245160662705397],[0.824253,9.260468],[0.8585,9.454745],[0.8554551813004515,9.470052337294604],[0.8467842712474619,9.483029271247462],[0.6371692712474619,9.71990827124746],[0.6241923372946035,9.72857918130045],[0.608885,9.731623999999998],[0.5935776627053965,9.72857918130045],[0.5806007287525381,9.71990827124746],[0.5719298186995485,9.706931337294602],[0.568885,9.691624],[0.551929,9.202836]]]},"properties":{"district":"BASSAR","count":4,"totalEffectif":97}},{"type":"Feature","geometry":{"type":"Polygon","coordinates":[[[1.080628,7.18908],[1.127253,6.67183],[1.159079,6.385789],[1.1621238186995486,6.370481662705396],[1.1707947287525382,6.357504728752538],[1.1837716627053965,6.348833818699548],[1.199079,6.345789],[1.2143863372946035,6.348833818699548],[1.2273632712474618,6.357504728752538],[1.2882042712474617,6.417286728752538],[1.2968751813004513,6.430263662705396],[1.4069641813004514,6.834555662705396],[1.410009,6.849863],[1.4069641813004514,6.865170337294604],[1.3982932712474618,6.878147271247462],[1.1489122712474618,7.217364271247462],[1.1359353372946035,7.2260351813004515],[1.120628,7.22908],[1.1053206627053964,7.2260351813004515],[1.0923437287525382,7.217364271247462],[1.0836728186995486,7.2043873372946035],[1.080628,7.18908]]]},"properties":{"district":"BERCEAU","count":7,"totalEffectif":463}},{"type":"Feature","geometry":{"type":"Polygon","coordinates":[[[1.195496,9.684249],[1.1985408186995485,9.668941662705397],[1.2072117287525381,9.655964728752538],[1.2201886627053964,9.647293818699548],[1.235496,9.644249],[1.322419,9.628300000000001],[1.3377263372946036,9.63134481869955],[1.3507032712474618,9.64001572875254],[1.3593741813004514,9.652992662705397],[1.4018951813004514,9.846490662705397],[1.40494,9.861798],[1.4018951813004514,9.877105337294603],[1.3932242712474618,9.890082271247461],[1.3802473372946036,9.898753181300451],[1.36494,9.901798],[1.3496326627053965,9.898753181300451],[1.3366557287525382,9.890082271247461],[1.2072117287525381,9.71253327124746],[1.1985408186995485,9.699556337294602],[1.195496,9.684249]]]},"properties":{"district":"BINAH","count":4,"totalEffectif":140}},{"type":"Feature","geometry":{"type":"Polygon","coordinates":[[[0.937939,8.554221],[0.9409838186995485,8.538913662705397],[0.9496547287525381,8.525936728752539],[0.9626316627053964,8.51726581869955],[0.977939,8.514221000000001],[0.9932463372946037,8.51726581869955],[1.2380463372946036,8.568043818699548],[1.2510232712474618,8.576714728752538],[1.2596941813004514,8.589691662705397],[1.262739,8.604999],[1.2596941813004514,8.620306337294602],[1.1706431813004514,9.008449337294605],[1.1619722712474618,9.021426271247464],[1.1489953372946036,9.030097181300453],[1.133688,9.033142000000002],[1.1183806627053965,9.030097181300453],[1.1054037287525382,9.021426271247464],[1.0967328186995486,9.008449337294605],[0.9409838186995485,8.569528337294603],[0.937939,8.554221]]]},"properties":{"district":"CENTRAL","count":5,"totalEffectif":215}},{"type":"Feature","geometry":{"type":"Polygon","coordinates":[[[1.225357,8.454602],[1.231446637399097,8.423987325410792],[1.2487884575050763,8.398033457505075],[1.2747423254107928,8.380691637399096],[1.305357,8.374602],[1.3359716745892074,8.380691637399096],[1.361925542494924,8.398033457505075],[1.379267362600903,8.423987325410792],[1.3853570000000002,8.454602],[1.379267362600903,8.485216674589207],[1.361925542494924,8.511170542494924],[1.3359716745892072,8.528512362600903],[1.305357,8.534602],[1.274742325410793,8.528512362600903],[1.2487884575050763,8.511170542494924],[1.231446637399097,8.485216674589207],[1.225357,8.454602]]]},"properties":{"district":"CENTRALE","count":1,"totalEffectif":56}},{"type":"Feature","geometry":{"type":"Polygon","coordinates":[[[0.86878,6.75536],[0.8718248186995485,6.740052662705396],[0.8804957287525381,6.727075728752538],[0.8934726627053964,6.718404818699548],[0.9737356627053964,6.696404818699548],[0.989043,6.69336],[1.0043503372946037,6.696404818699548],[1.017327271247462,6.705075728752538],[1.0259981813004515,6.7180526627053965],[1.029043,6.73336],[1.032558,6.753982],[1.0295131813004514,6.7692893372946035],[1.0225731813004515,6.781824337294604],[1.013902271247462,6.794801271247462],[1.0009253372946036,6.803472181300452],[0.985618,6.806517],[0.970025,6.808942],[0.9547176627053965,6.805897181300452],[0.8934726627053965,6.792315181300451],[0.8804957287525381,6.783644271247462],[0.8718248186995485,6.770667337294603],[0.86878,6.75536]]]},"properties":{"district":"GAME","count":6,"totalEffectif":174}},{"type":"Feature","geometry":{"type":"Polygon","coordinates":[[[0.9893620000000001,9.938823],[0.9924068186995486,9.923515662705396],[1.1463618186995486,9.529841662705397],[1.1550327287525382,9.51686472875254],[1.1680096627053964,9.50819381869955],[1.183317,9.505149000000001],[1.1986243372946035,9.50819381869955],[1.2116012712474618,9.51686472875254],[1.2202721813004513,9.529841662705397],[1.223317,9.545149],[1.235916,10.082772],[1.2328711813004514,10.098079337294603],[1.2242002712474618,10.111056271247461],[1.2112233372946035,10.119727181300451],[1.195916,10.122772],[1.1806086627053964,10.119727181300451],[1.1676317287525382,10.111056271247461],[1.0010777287525383,9.96710727124746],[0.9924068186995486,9.954130337294602],[0.9893620000000001,9.938823]]]},"properties":{"district":"KARA","count":5,"totalEffectif":259}},{"type":"Feature","geometry":{"type":"Polygon","coordinates":[[[1.012697,9.862727],[1.018786637399097,9.832112325410792],[1.0361284575050762,9.806158457505076],[1.0620823254107927,9.788816637399096],[1.092697,9.782727],[1.1233116745892073,9.788816637399096],[1.1492655424949239,9.806158457505076],[1.166607362600903,9.832112325410792],[1.172697,9.862727],[1.166607362600903,9.893341674589207],[1.1492655424949239,9.919295542494924],[1.123311674589207,9.936637362600903],[1.092697,9.942727],[1.062082325410793,9.936637362600903],[1.0361284575050762,9.919295542494924],[1.018786637399097,9.893341674589207],[1.012697,9.862727]]]},"properties":{"district":"KARA-SOKODE","count":1,"totalEffectif":12}},{"type":"Feature","geometry":{"type":"Polygon","coordinates":[[[1.004022,6.258392],[1.0070668186995486,6.243084662705396],[1.0541948186995487,6.156625662705396],[1.0628657287525383,6.143648728752538],[1.0758426627053965,6.134977818699548],[1.1987046627053966,6.110524818699548],[1.214012,6.10748],[1.307565,6.113415],[1.3228723372946036,6.116459818699548],[1.4541823372946034,6.174434818699548],[1.4671592712474617,6.183105728752538],[1.4758301813004513,6.196082662705396],[1.478875,6.21139],[1.4758301813004513,6.2266973372946035],[1.4671592712474617,6.239674271247462],[1.4541823372946034,6.248345181300452],[1.2371943372946035,6.359504181300452],[1.221887,6.3625490000000005],[1.126827,6.361566],[1.1115196627053965,6.358521181300452],[1.0985427287525382,6.349850271247462],[1.0157377287525382,6.286676271247462],[1.0070668186995486,6.2736993372946035],[1.004022,6.258392]]]},"properties":{"district":"LITTORAL","count":28,"totalEffectif":3574}},{"type":"Feature","geometry":{"type":"Polygon","coordinates":[[[0.564776,7.587279],[0.5678208186995485,7.571971662705396],[0.5764917287525381,7.558994728752538],[0.7845007287525381,7.286648728752538],[0.7974776627053963,7.277977818699548],[0.812785,7.274933],[1.164271,7.271847],[1.164383,7.271867],[1.1796903372946035,7.2749118186995485],[1.1926672712474617,7.283582728752538],[1.2013381813004513,7.296559662705397],[1.204383,7.311867],[1.243212,7.76997],[1.2401671813004513,7.785277337294604],[1.2314962712474617,7.798254271247462],[1.2185193372946035,7.806925181300452],[1.203212,7.80997],[1.1879046627053964,7.806925181300452],[0.7790566627053964,7.693817181300452],[0.5894686627053964,7.6242341813004515],[0.5764917287525381,7.615563271247462],[0.5678208186995485,7.602586337294603],[0.564776,7.587279]]]},"properties":{"district":"PLATEAUX-EST","count":12,"totalEffectif":450}},{"type":"Feature","geometry":{"type":"Polygon","coordinates":[[[0.521044,6.894798],[0.5240888186995485,6.879490662705396],[0.7888348186995485,6.466575662705396],[0.7975057287525381,6.453598728752538],[0.8104826627053964,6.444927818699548],[0.9204456627053963,6.391402818699548],[0.935753,6.388358],[0.9510603372946036,6.391402818699548],[0.9640372712474619,6.400073728752538],[0.9727081813004514,6.4130506627053965],[0.975753,6.428358],[0.898707,6.889785],[0.8956621813004515,6.905092337294604],[0.7469221813004515,7.296932337294604],[0.7382512712474619,7.309909271247462],[0.7252743372946036,7.318580181300452],[0.709967,7.321625],[0.6946596627053965,7.318580181300452],[0.6816827287525381,7.309909271247462],[0.6730118186995485,7.296932337294604],[0.6042108186995485,7.153150337294604],[0.5240888186995485,6.9101053372946035],[0.521044,6.894798]]]},"properties":{"district":"PLATEAUX-OUEST","count":19,"totalEffectif":602}},{"type":"Feature","geometry":{"type":"Polygon","coordinates":[[[0.1659,10.875632],[0.16894481869954853,10.860324662705397],[0.27314881869954855,10.544254662705397],[0.2818197287525381,10.531277728752539],[0.43758672875253807,10.30108872875254],[0.4505636627053964,10.29241781869955],[0.465871,10.289373000000001],[0.4811783372946036,10.29241781869955],[0.4941552712474619,10.30108872875254],[0.5028261813004514,10.314065662705397],[0.505871,10.329373],[0.43249099999999996,10.698617],[0.4294461813004514,10.713924337294603],[0.4207752712474619,10.726901271247462],[0.2341842712474619,10.90391627124746],[0.2212073372946036,10.91258718130045],[0.2059,10.915631999999999],[0.1905926627053964,10.91258718130045],[0.17761572875253812,10.90391627124746],[0.16894481869954853,10.890939337294602],[0.1659,10.875632]]]},"properties":{"district":"SAVANES","count":7,"totalEffectif":307}},{"type":"Feature","geometry":{"type":"Polygon","coordinates":[[[1.225787,6.556236],[1.2288318186995486,6.540928662705396],[1.2970118186995485,6.3133656627053965],[1.3345878186995486,6.2201436627053965],[1.3432587287525382,6.207166728752538],[1.3562356627053964,6.1984958186995485],[1.371543,6.195451],[1.500648,6.185118],[1.5159553372946035,6.188162818699548],[1.6249613372946035,6.222685818699548],[1.6379382712474617,6.231356728752538],[1.7389592712474617,6.319870728752538],[1.7476301813004513,6.3328476627053965],[1.750675,6.348155],[1.7476301813004513,6.363462337294604],[1.5689871813004515,6.806721337294603],[1.5603162712474619,6.819698271247462],[1.5473393372946036,6.8283691813004515],[1.532032,6.831414],[1.5167246627053965,6.8283691813004515],[1.5037477287525383,6.819698271247462],[1.2375027287525382,6.584520271247462],[1.2288318186995486,6.571543337294604],[1.225787,6.556236]]]},"properties":{"district":"YOTO","count":28,"totalEffectif":640}}]}